{
  "type": "FeatureCollection",
  "features": [
    {
      "type": "Feature",
      "properties": {
        "norad_id": 32376,
        "name": "COSMO-SKYMED 2",
        "group": "resource",
        "lat": 77.21700783855721,
        "lon": 33.31053558918565,
        "alt_km": 614.3834215090947,
        "timestamp": "2025-12-20T11:30:28.027706+00:00",
        "meta_object_name": "COSMO-SKYMED 2",
        "meta_object_id": "2007-059A",
        "meta_epoch": "2025-12-20T04:34:37.163424",
        "meta_mean_motion": 14.82150985,
        "meta_eccentricity": 0.0001353,
        "meta_inclination": 97.8804,
        "meta_ra_of_asc_node": 175.4023,
        "meta_arg_of_pericenter": 82.8974,
        "meta_mean_anomaly": 277.2393,
        "meta_ephemeris_type": 0,
        "meta_classification_type": "U",
        "meta_norad_cat_id": 32376,
        "meta_element_set_no": 999,
        "meta_rev_at_epoch": 97548,
        "meta_bstar": 5.1195e-05,
        "meta_mean_motion_dot": 3.55e-06,
        "meta_mean_motion_ddot": 0,
        "tle_line1": "1 32376U 07059A   25354.19070791  .00000355  00000+0  51195-4 0  9992",
        "tle_line2": "2 32376  97.8804 175.4023 0001353  82.8974 277.2393 14.82150985975480"
      },
      "geometry": {
        "type": "Point",
        "coordinates": [
          33.31053558918565,
          77.21700783855721
        ]
      }
    },
    {
      "type": "Feature",
      "properties": {
        "norad_id": 32382,
        "name": "RADARSAT-2",
        "group": "resource",
        "lat": 37.24324989668867,
        "lon": -7.632553650291126,
        "alt_km": 788.497170770378,
        "timestamp": "2025-12-20T11:30:28.027717+00:00",
        "meta_object_name": "RADARSAT-2",
        "meta_object_id": "2007-061A",
        "meta_epoch": "2025-12-20T04:36:52.960896",
        "meta_mean_motion": 14.29984373,
        "meta_eccentricity": 0.0001135,
        "meta_inclination": 98.579,
        "meta_ra_of_asc_node": 358.6744,
        "meta_arg_of_pericenter": 84.4996,
        "meta_mean_anomaly": 275.6316,
        "meta_ephemeris_type": 0,
        "meta_classification_type": "U",
        "meta_norad_cat_id": 32382,
        "meta_element_set_no": 999,
        "meta_rev_at_epoch": 94037,
        "meta_bstar": 0.00010377,
        "meta_mean_motion_dot": 2.24e-06,
        "meta_mean_motion_ddot": 0,
        "tle_line1": "1 32382U 07061A   25354.19227964  .00000224  00000+0  10377-3 0  9999",
        "tle_line2": "2 32382  98.5790 358.6744 0001135  84.4996 275.6316 14.29984373940378"
      },
      "geometry": {
        "type": "Point",
        "coordinates": [
          -7.632553650291126,
          37.24324989668867
        ]
      }
    },
    {
      "type": "Feature",
      "properties": {
        "norad_id": 32783,
        "name": "CARTOSAT-2A",
        "group": "resource",
        "lat": 29.13505419991367,
        "lon": -131.56075413625598,
        "alt_km": 639.0670398553593,
        "timestamp": "2025-12-20T11:30:28.027728+00:00",
        "meta_object_name": "CARTOSAT-2A",
        "meta_object_id": "2008-021A",
        "meta_epoch": "2025-12-20T04:20:04.219296",
        "meta_mean_motion": 14.78950753,
        "meta_eccentricity": 0.0011251,
        "meta_inclination": 97.7924,
        "meta_ra_of_asc_node": 43.7721,
        "meta_arg_of_pericenter": 340.392,
        "meta_mean_anomaly": 19.6857,
        "meta_ephemeris_type": 0,
        "meta_classification_type": "U",
        "meta_norad_cat_id": 32783,
        "meta_element_set_no": 999,
        "meta_rev_at_epoch": 95234,
        "meta_bstar": 0.00013169,
        "meta_mean_motion_dot": 9.22e-06,
        "meta_mean_motion_ddot": 0,
        "tle_line1": "1 32783U 08021A   25354.18060439  .00000922  00000+0  13169-3 0  9999",
        "tle_line2": "2 32783  97.7924  43.7721 0011251 340.3920  19.6857 14.78950753952346"
      },
      "geometry": {
        "type": "Point",
        "coordinates": [
          -131.56075413625598,
          29.13505419991367
        ]
      }
    },
    {
      "type": "Feature",
      "properties": {
        "norad_id": 33320,
        "name": "HUANJING 1A (HJ-1A)",
        "group": "resource",
        "lat": 39.41819056226181,
        "lon": 168.80048357947777,
        "alt_km": 624.4467529373233,
        "timestamp": "2025-12-20T11:30:28.027738+00:00",
        "meta_object_name": "HUANJING 1A (HJ-1A)",
        "meta_object_id": "2008-041A",
        "meta_epoch": "2025-12-20T04:24:13.974912",
        "meta_mean_motion": 14.8341547,
        "meta_eccentricity": 0.0019642,
        "meta_inclination": 97.6535,
        "meta_ra_of_asc_node": 342.1712,
        "meta_arg_of_pericenter": 10.7747,
        "meta_mean_anomaly": 349.3884,
        "meta_ephemeris_type": 0,
        "meta_classification_type": "U",
        "meta_norad_cat_id": 33320,
        "meta_element_set_no": 999,
        "meta_rev_at_epoch": 93186,
        "meta_bstar": 0.00014007,
        "meta_mean_motion_dot": 1.102e-05,
        "meta_mean_motion_ddot": 0,
        "tle_line1": "1 33320U 08041A   25354.18349508  .00001102  00000+0  14007-3 0  9999",
        "tle_line2": "2 33320  97.6535 342.1712 0019642  10.7747 349.3884 14.83415470931869"
      },
      "geometry": {
        "type": "Point",
        "coordinates": [
          168.80048357947777,
          39.41819056226181
        ]
      }
    },
    {
      "type": "Feature",
      "properties": {
        "norad_id": 33321,
        "name": "HUANJING 1B (HJ-1B)",
        "group": "resource",
        "lat": -15.389492448066182,
        "lon": -11.751102673661315,
        "alt_km": 614.565119234293,
        "timestamp": "2025-12-20T11:30:28.027749+00:00",
        "meta_object_name": "HUANJING 1B (HJ-1B)",
        "meta_object_id": "2008-041B",
        "meta_epoch": "2025-12-20T05:05:57.708672",
        "meta_mean_motion": 14.82840621,
        "meta_eccentricity": 0.0037997,
        "meta_inclination": 97.6395,
        "meta_ra_of_asc_node": 345.8765,
        "meta_arg_of_pericenter": 52.1734,
        "meta_mean_anomaly": 308.291,
        "meta_ephemeris_type": 0,
        "meta_classification_type": "U",
        "meta_norad_cat_id": 33321,
        "meta_element_set_no": 999,
        "meta_rev_at_epoch": 93188,
        "meta_bstar": 0.0001633,
        "meta_mean_motion_dot": 1.287e-05,
        "meta_mean_motion_ddot": 0,
        "tle_line1": "1 33321U 08041B   25354.21247348  .00001287  00000+0  16330-3 0  9998",
        "tle_line2": "2 33321  97.6395 345.8765 0037997  52.1734 308.2910 14.82840621931886"
      },
      "geometry": {
        "type": "Point",
        "coordinates": [
          -11.751102673661315,
          -15.389492448066182
        ]
      }
    },
    {
      "type": "Feature",
      "properties": {
        "norad_id": 33331,
        "name": "GEOEYE 1",
        "group": "resource",
        "lat": -8.083069038373763,
        "lon": -115.49990516597086,
        "alt_km": 681.1045114896033,
        "timestamp": "2025-12-20T11:30:28.027759+00:00",
        "meta_object_name": "GEOEYE 1",
        "meta_object_id": "2008-042A",
        "meta_epoch": "2025-12-20T04:05:36.757248",
        "meta_mean_motion": 14.64709473,
        "meta_eccentricity": 0.0002811,
        "meta_inclination": 98.1244,
        "meta_ra_of_asc_node": 65.3576,
        "meta_arg_of_pericenter": 252.467,
        "meta_mean_anomaly": 107.6225,
        "meta_ephemeris_type": 0,
        "meta_classification_type": "U",
        "meta_norad_cat_id": 33331,
        "meta_element_set_no": 999,
        "meta_rev_at_epoch": 92394,
        "meta_bstar": 8.2665e-05,
        "meta_mean_motion_dot": 3.93e-06,
        "meta_mean_motion_ddot": 0,
        "tle_line1": "1 33331U 08042A   25354.17056432  .00000393  00000+0  82665-4 0  9999",
        "tle_line2": "2 33331  98.1244  65.3576 0002811 252.4670 107.6225 14.64709473923948"
      },
      "geometry": {
        "type": "Point",
        "coordinates": [
          -115.49990516597086,
          -8.083069038373763
        ]
      }
    },
    {
      "type": "Feature",
      "properties": {
        "norad_id": 33396,
        "name": "THEOS",
        "group": "resource",
        "lat": -61.83258930092829,
        "lon": -144.04808731641822,
        "alt_km": 832.8689582198376,
        "timestamp": "2025-12-20T11:30:28.027770+00:00",
        "meta_object_name": "THEOS",
        "meta_object_id": "2008-049A",
        "meta_epoch": "2025-12-20T03:36:10.933920",
        "meta_mean_motion": 14.20098382,
        "meta_eccentricity": 0.0001164,
        "meta_inclination": 98.5863,
        "meta_ra_of_asc_node": 52.0216,
        "meta_arg_of_pericenter": 96.7502,
        "meta_mean_anomaly": 263.3807,
        "meta_ephemeris_type": 0,
        "meta_classification_type": "U",
        "meta_norad_cat_id": 33396,
        "meta_element_set_no": 999,
        "meta_rev_at_epoch": 89255,
        "meta_bstar": 0.00013323,
        "meta_mean_motion_dot": 2.41e-06,
        "meta_mean_motion_ddot": 0,
        "tle_line1": "1 33396U 08049A   25354.15012655  .00000241  00000+0  13323-3 0  9990",
        "tle_line2": "2 33396  98.5863  52.0216 0001164  96.7502 263.3807 14.20098382892557"
      },
      "geometry": {
        "type": "Point",
        "coordinates": [
          -144.04808731641822,
          -61.83258930092829
        ]
      }
    }
  ]
}